NOAA 15                 
1 25338U 98030A   18257.59108757  .00000007  00000-0  21914-4 0  9994
2 25338  98.7673 274.0726 0009899 333.4098  26.6573 14.25874960 57508
METEOSAT-8 (MSG-1)      
1 27509U 02040B   18257.06230000  .00000118  00000-0  00000+0 0  9992
2 27509   5.6144  56.6225 0000584  40.4347 319.7541  1.00277655 58848
NOAA 18                 
1 28654U 05018A   18257.57913055 -.00000028  00000-0  10011-4 0  9995
2 28654  99.1377 294.8175 0013566 234.0189 125.9725 14.12384806686308
METEOSAT-9 (MSG-2)      
1 28912U 05049B   18257.56774829 -.00000002  00000-0  00000-0 0  9994
2 28912   3.0971  71.6395 0000673  26.7025 102.9743  1.00277624 46637
HIMAWARI-7 (MTSAT-2)    
1 28937U 06004A   18257.52413036 -.00000266  00000-0  00000-0 0  9991
2 28937   0.0821 283.6609 0003848 247.2907 156.2290  1.00270380 46073
FORMOSAT-3 FM6          
1 29047U 06011A   18257.69428558  .00000032  00000-0  28758-4 0  9999
2 29047  71.9809 339.7332 0048409  88.1870 272.4809 14.28650441649685
FORMOSAT-3 FM1          
1 29048U 06011B   18257.48311892  .00000066  00000-0  42491-4 0  9996
2 29048  71.9649 251.8151 0042458  43.1966 317.2487 14.28587475652125
FORMOSAT-3 FM5          
1 29049U 06011C   18257.87054818  .00000066  00000-0  42200-4 0  9990
2 29049  72.0199  59.0426 0033573  76.6616 283.8260 14.28667091647968
FORMOSAT-3 FM3          
1 29050U 06011D   18257.44102115  .00000089  00000-0  29231-4 0  9993
2 29050  72.0142 271.5171 0048360  49.7337 310.8028 14.58702058662806
FORMOSAT-3 FM4          
1 29051U 06011E   18257.60299744  .00000091  00000-0  51311-4 0  9994
2 29051  72.0068 322.8471 0069991 313.7589  45.7767 14.28694297650514
FORMOSAT-3 FM2          
1 29052U 06011F   18257.78734593  .00000041  00000-0  32393-4 0  9994
2 29052  72.0356  34.7628 0039399  36.7045 323.6778 14.28792026648860
GOES 13                 
1 29155U 06018A   18257.18552201 -.00000308  00000-0  00000+0 0  9995
2 29155   0.0429 138.6376 0007546 283.0559 298.3844  1.00275012 45114
METOP-A                 
1 29499U 06044A   18257.91141204 -.00000026  00000-0  77065-5 0  9991
2 29499  98.6180 313.3353 0000576  44.3646 312.1697 14.21528973617738
FENGYUN 2D              
1 29640U 06053A   18257.44806072 -.00000383  00000-0  10000-3 0  9998
2 29640   5.2747  62.1868 0006422 298.9314 277.3400  1.00273589 43150
FENGYUN 3A              
1 32958U 08026A   18257.65630339 -.00000002  00000-0  18552-4 0  9999
2 32958  98.3810 267.7887 0010641  44.5348 315.6678 14.19714886533818
FENGYUN 2E              
1 33463U 08066A   18257.58432309 -.00000225  00000-0  00000-0 0  9996
2 33463   3.0479  69.1001 0005179 230.7700 350.7848  1.00268216 35685
NOAA 19                 
1 33591U 09005A   18257.54757004  .00000032  00000-0  42536-4 0  9999
2 33591  99.1510 237.3865 0015013  76.8431 283.4414 14.12307232494784
GOES 14                 
1 35491U 09033A   18257.30803181 -.00000119  00000-0  00000+0 0  9995
2 35491   0.3676 276.9534 0010809 302.0696 140.9010  1.00275314 33752
METEOR-M 1              
1 35865U 09049A   18257.89405814  .00000015  00000-0  25558-4 0  9996
2 35865  98.4075 263.8037 0001178 255.3832 104.7216 14.22164080466720
GOES 15                 
1 36411U 10008A   18257.39455114  .00000067  00000-0  00000-0 0  9992
2 36411   0.3856 279.3091 0004336 262.6888 178.0021  1.00264410 31276
COMS 1                  
1 36744U 10032A   18257.59261050 -.00000368  00000-0  00000-0 0  9999
2 36744   0.0108 211.0121 0000830 277.1214 206.8685  1.00273384 22689
FENGYUN 3B              
1 37214U 10059A   18257.92466572 -.00000010  00000-0  18067-4 0  9994
2 37214  98.9576 222.7703 0016186 289.1230  70.8197 14.15892978406896
SUOMI NPP               
1 37849U 11061A   18257.78100299  .00000002  00000-0  21888-4 0  9992
2 37849  98.7414 195.0853 0000695  60.0715 357.6133 14.19540671356589
FENGYUN 2F              
1 38049U 12002A   18257.58929553 -.00000379  00000-0  00000-0 0  9998
2 38049   2.6438  77.8095 0004292 225.6983  13.8340  1.00260398 24483
METEOSAT-10 (MSG-3)     
1 38552U 12035B   18256.97381309  .00000037  00000-0  00000-0 0  9996
2 38552   1.0352 352.6240 0000678  91.3692 268.7553  1.00268785 22488
METOP-B                 
1 38771U 12049A   18257.63332104 -.00000013  00000-0  14112-4 0  9995
2 38771  98.6634 315.4573 0001841  60.4145  93.7690 14.21512249310847
FENGYUN 3C              
1 39260U 13052A   18257.74520697 -.00000012  00000-0  15379-4 0  9997
2 39260  98.6459 320.4931 0010018 257.0934 102.9123 14.15850880257816
METEOR-M 2              
1 40069U 14037A   18257.71907898 -.00000015  00000-0  13031-4 0  9995
2 40069  98.5942 306.4023 0005376 352.9817   7.1281 14.20654264217094
HIMAWARI-8              
1 40267U 14060A   18257.62720941 -.00000299  00000-0  00000+0 0  9994
2 40267   0.0228 257.0698 0000432 288.9845 173.9479  1.00273658 14460
FENGYUN 2G              
1 40367U 14090A   18257.58685293 -.00000325  00000-0  00000-0 0  9994
2 40367   0.6155 111.6932 0002971 224.3863 328.2382  1.00276344 13637
METEOSAT-11 (MSG-4)     
1 40732U 15034A   18256.69078822 -.00000023  00000-0  00000-0 0  9999
2 40732   1.2150 242.8282 0001378 251.1271 107.7807  1.00279773 11630
ELEKTRO-L 2             
1 41105U 15074A   18257.85609744 -.00000120  00000-0  00000+0 0  9997
2 41105   0.0072 176.5165 0001332 354.4573 207.0441  1.00272536 10121
HIMAWARI-9              
1 41836U 16064A   18257.62693786 -.00000299  00000-0  00000+0 0  9999
2 41836   0.0208 163.3630 0000863 351.8154 204.8258  1.00268938  6901
GOES 16                 
1 41866U 16071A   18257.22793358 -.00000272  00000-0  00000-0 0  9994
2 41866   0.0064  99.5062 0000326  22.9694 237.5275  1.00269693  6712
FENGYUN 4A              
1 41882U 16077A   18257.93424904 -.00000353  00000-0  00000+0 0  9993
2 41882   0.1303  94.9272 0005914  44.4220 295.4667  1.00276536  6588
CYGFM05                 
1 41884U 16078A   18257.58312360  .00000451  00000-0  25908-4 0  9996
2 41884  34.9564  85.7968 0015071  74.4924 285.7450 15.14194323 96745
CYGFM04                 
1 41885U 16078B   18257.50524387  .00000458  00000-0  25906-4 0  9998
2 41885  34.9497  82.9241 0013370  78.1672 282.0538 15.14698637 96761
CYGFM02                 
1 41886U 16078C   18257.56408187  .00000406  00000-0  23202-4 0  9994
2 41886  34.9589  83.8478 0014141  76.4930 283.7356 15.14696805 96762
CYGFM01                 
1 41887U 16078D   18257.54002965  .00000401  00000-0  23336-4 0  9990
2 41887  34.9532  86.2371 0015527  75.6677 284.5757 15.14015979 96736
CYGFM08                 
1 41888U 16078E   18257.57374442  .00000446  00000-0  25489-4 0  9996
2 41888  34.9503  84.4689 0014650  78.7864 281.4493 15.14418359 96748
CYGFM06                 
1 41889U 16078F   18257.53927731  .00000412  00000-0  23499-4 0  9990
2 41889  34.9583  82.6633 0013108  76.0988 284.1180 15.14686533 96767
CYGFM07                 
1 41890U 16078G   18257.58391539  .00000403  00000-0  23031-4 0  9990
2 41890  34.9522  81.7836 0012836  78.4532 281.7620 15.14690086 96776
CYGFM03                 
1 41891U 16078H   18257.57882221  .00000397  00000-0  22698-4 0  9993
2 41891  34.9554  81.8959 0012317  77.6942 282.5148 15.14688083 96777
FENGYUN 3D              
1 43010U 17072A   18257.82565683 -.00000038  00000-0  27287-5 0  9994
2 43010  98.6801 196.8872 0002204 100.1261 260.0175 14.19703382 43154
NOAA 20                 
1 43013U 17073A   18257.52248707  .00000002  00000-0  21548-4 0  9993
2 43013  98.7294 194.5326 0001144  64.2338 295.8956 14.19546535 42584
GOES-S                  
1 43226U 18022A   18257.26748510 -.00000206  00000-0  00000-0 0  9995
2 43226   0.0026 107.6680 0000358 105.4782 146.8538  1.00273084  2022
